QIANFAN-73              
1 63159U 25046A   25278.53981052  .00000181  00000+0  26135-3 0  9997
2 63159  88.9811 327.0796 0013403 327.5315  32.5011 13.50979474 38206
QIANFAN-74              
1 63160U 25046B   25278.52333907  .00000155  00000+0  22176-3 0  9990
2 63160  88.9811 326.9696 0002226 102.9071 257.2329 13.50968963 38265
QIANFAN-75              
1 63161U 25046C   25278.51099949  .00000215  00000+0  31393-3 0  9993
2 63161  88.9813 327.2034 0014562 330.4901  29.5426 13.50977091 38130
QIANFAN-76              
1 63162U 25046D   25278.58097148  .00000125  00000+0  17522-3 0  9998
2 63162  88.9811 327.1772 0012147 332.2016  27.8484 13.50971297 38150
QIANFAN-77              
1 63163U 25046E   25278.52391600  .00000508  00000+0  36083-3 0  9991
2 63163  88.9808 325.7505 0012481 296.6994  63.2904 13.96063697 38937
QIANFAN-78              
1 63164U 25046F   25278.54807542  .00000178  00000+0  25711-3 0  9990
2 63164  88.9810 327.0452 0013595 334.0610  25.9858 13.50969272 38225
QIANFAN-79              
1 63165U 25046G   25278.50268698  .00000196  00000+0  28458-3 0  9991
2 63165  88.9816 327.1549 0013226 332.4782  27.5668 13.50971446 38169
QIANFAN-80              
1 63166U 25046H   25278.51926411  .00000197  00000+0  28616-3 0  9994
2 63166  88.9812 326.8619 0012370 337.7814  22.2799 13.50972332 38323
